CCSDS_OMM_VERS = 2.0
CREATION_DATE  = 
ORIGINATOR     = 

OBJECT_NAME    = SL-3 R/B
OBJECT_ID      = 1982-039B
CENTER_NAME    = EARTH
REF_FRAME      = TEME
TIME_SYSTEM    = UTC
MEAN_ELEMENT_THEORY = SGP/SGP4

EPOCH          = 2025-10-26T21:38:11.702976
MEAN_MOTION    = 15.09157426
ECCENTRICITY   = .00328838
INCLINATION    = 81.1847
RA_OF_ASC_NODE = 9.9350
ARG_OF_PERICENTER = 43.4455
MEAN_ANOMALY   = 316.9352

EPHEMERIS_TYPE = 0
CLASSIFICATION_TYPE = U
NORAD_CAT_ID   = 13154
ELEMENT_SET_NO = 999
REV_AT_EPOCH   = 36145
BSTAR          = .19587701E-3
MEAN_MOTION_DOT = .3172E-4
MEAN_MOTION_DDOT = 0

CCSDS_OMM_VERS = 2.0
CREATION_DATE  = 
ORIGINATOR     = 

OBJECT_NAME    = SL-3 R/B
OBJECT_ID      = 1982-079B
CENTER_NAME    = EARTH
REF_FRAME      = TEME
TIME_SYSTEM    = UTC
MEAN_ELEMENT_THEORY = SGP/SGP4

EPOCH          = 2025-10-26T21:48:49.722048
MEAN_MOTION    = 15.22875838
ECCENTRICITY   = .0024547
INCLINATION    = 81.1485
RA_OF_ASC_NODE = 350.8380
ARG_OF_PERICENTER = 257.0816
MEAN_ANOMALY   = 102.7675

EPHEMERIS_TYPE = 0
CLASSIFICATION_TYPE = U
NORAD_CAT_ID   = 13403
ELEMENT_SET_NO = 999
REV_AT_EPOCH   = 35732
BSTAR          = .26981322E-3
MEAN_MOTION_DOT = .6398E-4
MEAN_MOTION_DDOT = 0

CCSDS_OMM_VERS = 2.0
CREATION_DATE  = 
ORIGINATOR     = 

OBJECT_NAME    = SL-14 R/B
OBJECT_ID      = 1982-092B
CENTER_NAME    = EARTH
REF_FRAME      = TEME
TIME_SYSTEM    = UTC
MEAN_ELEMENT_THEORY = SGP/SGP4

EPOCH          = 2025-10-26T23:08:51.848736
MEAN_MOTION    = 14.86472451
ECCENTRICITY   = .00212551
INCLINATION    = 82.5657
RA_OF_ASC_NODE = 266.4569
ARG_OF_PERICENTER = 29.0633
MEAN_ANOMALY   = 28.0429

EPHEMERIS_TYPE = 0
CLASSIFICATION_TYPE = U
NORAD_CAT_ID   = 13553
ELEMENT_SET_NO = 999
REV_AT_EPOCH   = 30906
BSTAR          = .10122975E-3
MEAN_MOTION_DOT = .923E-5
MEAN_MOTION_DDOT = 0

CCSDS_OMM_VERS = 2.0
CREATION_DATE  = 
ORIGINATOR     = 

OBJECT_NAME    = SL-3 R/B
OBJECT_ID      = 1983-010B
CENTER_NAME    = EARTH
REF_FRAME      = TEME
TIME_SYSTEM    = UTC
MEAN_ELEMENT_THEORY = SGP/SGP4

EPOCH          = 2025-10-26T16:18:11.666880
MEAN_MOTION    = 15.41808179
ECCENTRICITY   = .00179409
INCLINATION    = 81.1047
RA_OF_ASC_NODE = 165.9866
ARG_OF_PERICENTER = 149.5098
MEAN_ANOMALY   = 210.7192

EPHEMERIS_TYPE = 0
CLASSIFICATION_TYPE = U
NORAD_CAT_ID   = 13819
ELEMENT_SET_NO = 999
REV_AT_EPOCH   = 33726
BSTAR          = .31862146E-3
MEAN_MOTION_DOT = .13606E-3
MEAN_MOTION_DDOT = 0

CCSDS_OMM_VERS = 2.0
CREATION_DATE  = 
ORIGINATOR     = 

OBJECT_NAME    = SL-3 R/B
OBJECT_ID      = 1983-075B
CENTER_NAME    = EARTH
REF_FRAME      = TEME
TIME_SYSTEM    = UTC
MEAN_ELEMENT_THEORY = SGP/SGP4

EPOCH          = 2025-10-26T22:20:12.535296
MEAN_MOTION    = 15.34771112
ECCENTRICITY   = .00231359
INCLINATION    = 97.6106
RA_OF_ASC_NODE = 294.8906
ARG_OF_PERICENTER = 353.0239
MEAN_ANOMALY   = 7.0679

EPHEMERIS_TYPE = 0
CLASSIFICATION_TYPE = U
NORAD_CAT_ID   = 14208
ELEMENT_SET_NO = 999
REV_AT_EPOCH   = 30961
BSTAR          = .40012068E-3
MEAN_MOTION_DOT = .13527E-3
MEAN_MOTION_DDOT = 0

CCSDS_OMM_VERS = 2.0
CREATION_DATE  = 
ORIGINATOR     = 

OBJECT_NAME    = COSMOS 1536
OBJECT_ID      = 1984-013A
CENTER_NAME    = EARTH
REF_FRAME      = TEME
TIME_SYSTEM    = UTC
MEAN_ELEMENT_THEORY = SGP/SGP4

EPOCH          = 2025-10-26T22:24:31.904640
MEAN_MOTION    = 15.21639831
ECCENTRICITY   = .00168659
INCLINATION    = 82.5458
RA_OF_ASC_NODE = 240.5467
ARG_OF_PERICENTER = 39.0827
MEAN_ANOMALY   = 321.1623

EPHEMERIS_TYPE = 0
CLASSIFICATION_TYPE = U
NORAD_CAT_ID   = 14699
ELEMENT_SET_NO = 999
REV_AT_EPOCH   = 25226
BSTAR          = .45824071E-3
MEAN_MOTION_DOT = .10425E-3
MEAN_MOTION_DDOT = 0

CCSDS_OMM_VERS = 2.0
CREATION_DATE  = 
ORIGINATOR     = 

OBJECT_NAME    = SL-14 R/B
OBJECT_ID      = 1984-027B
CENTER_NAME    = EARTH
REF_FRAME      = TEME
TIME_SYSTEM    = UTC
MEAN_ELEMENT_THEORY = SGP/SGP4

EPOCH          = 2025-10-26T22:53:20.295168
MEAN_MOTION    = 14.85804444
ECCENTRICITY   = .0019315
INCLINATION    = 82.5449
RA_OF_ASC_NODE = 10.4263
ARG_OF_PERICENTER = 59.1208
MEAN_ANOMALY   = 301.1904

EPHEMERIS_TYPE = 0
CLASSIFICATION_TYPE = U
NORAD_CAT_ID   = 14820
ELEMENT_SET_NO = 999
REV_AT_EPOCH   = 22777
BSTAR          = .7271503E-4
MEAN_MOTION_DOT = .659E-5
MEAN_MOTION_DDOT = 0

CCSDS_OMM_VERS = 2.0
CREATION_DATE  = 
ORIGINATOR     = 

OBJECT_NAME    = SL-8 R/B
OBJECT_ID      = 1985-006B
CENTER_NAME    = EARTH
REF_FRAME      = TEME
TIME_SYSTEM    = UTC
MEAN_ELEMENT_THEORY = SGP/SGP4

EPOCH          = 2025-10-26T22:19:22.042272
MEAN_MOTION    = 14.37679230
ECCENTRICITY   = .00174023
INCLINATION    = 74.0439
RA_OF_ASC_NODE = 147.2548
ARG_OF_PERICENTER = 95.5344
MEAN_ANOMALY   = 9.6747

EPHEMERIS_TYPE = 0
CLASSIFICATION_TYPE = U
NORAD_CAT_ID   = 15483
ELEMENT_SET_NO = 999
REV_AT_EPOCH   = 13480
BSTAR          = .95194479E-4
MEAN_MOTION_DOT = .26E-5
MEAN_MOTION_DDOT = 0

CCSDS_OMM_VERS = 2.0
CREATION_DATE  = 
ORIGINATOR     = 

OBJECT_NAME    = SL-12 R/B(2)
OBJECT_ID      = 1985-042D
CENTER_NAME    = EARTH
REF_FRAME      = TEME
TIME_SYSTEM    = UTC
MEAN_ELEMENT_THEORY = SGP/SGP4

EPOCH          = 2025-10-26T23:40:35.377248
MEAN_MOTION    = 14.21930249
ECCENTRICITY   = .0036461
INCLINATION    = 71.1103
RA_OF_ASC_NODE = 10.1919
ARG_OF_PERICENTER = 330.4542
MEAN_ANOMALY   = 202.6569

EPHEMERIS_TYPE = 0
CLASSIFICATION_TYPE = U
NORAD_CAT_ID   = 15772
ELEMENT_SET_NO = 999
REV_AT_EPOCH   = 9538
BSTAR          = .11996967E-3
MEAN_MOTION_DOT = .219E-5
MEAN_MOTION_DDOT = 0

CCSDS_OMM_VERS = 2.0
CREATION_DATE  = 
ORIGINATOR     = 

OBJECT_NAME    = SL-14 R/B
OBJECT_ID      = 1985-069B
CENTER_NAME    = EARTH
REF_FRAME      = TEME
TIME_SYSTEM    = UTC
MEAN_ELEMENT_THEORY = SGP/SGP4

EPOCH          = 2025-10-26T20:15:35.524224
MEAN_MOTION    = 14.86245248
ECCENTRICITY   = .00173554
INCLINATION    = 82.5261
RA_OF_ASC_NODE = 150.7915
ARG_OF_PERICENTER = 276.6890
MEAN_ANOMALY   = 83.2351

EPHEMERIS_TYPE = 0
CLASSIFICATION_TYPE = U
NORAD_CAT_ID   = 15945
ELEMENT_SET_NO = 999
REV_AT_EPOCH   = 15295
BSTAR          = .67369152E-4
MEAN_MOTION_DOT = .617E-5
MEAN_MOTION_DDOT = 0

CCSDS_OMM_VERS = 2.0
CREATION_DATE  = 
ORIGINATOR     = 

OBJECT_NAME    = SL-16 R/B
OBJECT_ID      = 1985-097B
CENTER_NAME    = EARTH
REF_FRAME      = TEME
TIME_SYSTEM    = UTC
MEAN_ELEMENT_THEORY = SGP/SGP4

EPOCH          = 2025-10-26T20:13:34.642848
MEAN_MOTION    = 14.16573697
ECCENTRICITY   = .00053047
INCLINATION    = 71.0032
RA_OF_ASC_NODE = 62.3304
ARG_OF_PERICENTER = 104.7356
MEAN_ANOMALY   = 65.3119

EPHEMERIS_TYPE = 0
CLASSIFICATION_TYPE = U
NORAD_CAT_ID   = 16182
ELEMENT_SET_NO = 999
REV_AT_EPOCH   = 6827
BSTAR          = .18432587E-3
MEAN_MOTION_DOT = .32E-5
MEAN_MOTION_DDOT = 0

CCSDS_OMM_VERS = 2.0
CREATION_DATE  = 
ORIGINATOR     = 

OBJECT_NAME    = SL-14 R/B
OBJECT_ID      = 1986-006B
CENTER_NAME    = EARTH
REF_FRAME      = TEME
TIME_SYSTEM    = UTC
MEAN_ELEMENT_THEORY = SGP/SGP4

EPOCH          = 2025-10-26T17:15:09.886752
MEAN_MOTION    = 14.86577624
ECCENTRICITY   = .00767634
INCLINATION    = 82.5302
RA_OF_ASC_NODE = 25.7843
ARG_OF_PERICENTER = 357.9526
MEAN_ANOMALY   = 2.1364

EPHEMERIS_TYPE = 0
CLASSIFICATION_TYPE = U
NORAD_CAT_ID   = 16496
ELEMENT_SET_NO = 999
REV_AT_EPOCH   = 12930
BSTAR          = .85792464E-4
MEAN_MOTION_DOT = .828E-5
MEAN_MOTION_DDOT = 0

