SL-3 R/B                
1 13154U 82039B   25299.90152434  .00003172  00000+0  19588-3 0  9997
2 13154  81.1847   9.9350 0032883  43.4455 316.9352 15.09157426361458
SL-3 R/B                
1 13403U 82079B   25299.90890882  .00006398  00000+0  26981-3 0  9992
2 13403  81.1485 350.8380 0024547 257.0816 102.7675 15.22875838357325
SL-14 R/B               
1 13553U 82092B   25299.96448899  .00000923  00000+0  10123-3 0  9995
2 13553  82.5657 266.4569 0021255  29.0633  28.0429 14.86472451309063
SL-3 R/B                
1 13819U 83010B   25299.67930170  .00013606  00000+0  31862-3 0  9992
2 13819  81.1047 165.9866 0017940 149.5098 210.7192 15.41808179337260
SL-3 R/B                
1 14208U 83075B   25299.93070064  .00013527  00000+0  40012-3 0  9991
2 14208  97.6106 294.8906 0023135 353.0239   7.0679 15.34771112309613
COSMOS 1536             
1 14699U 84013A   25299.93370260  .00010425  00000+0  45824-3 0  9999
2 14699  82.5458 240.5467 0016865  39.0827 321.1623 15.21639831252260
SL-14 R/B               
1 14820U 84027B   25299.95370712  .00000659  00000+0  72715-4 0  9992
2 14820  82.5449  10.4263 0019315  59.1208 301.1904 14.85804444227774
SL-8 R/B                
1 15483U 85006B   25299.93011623  .00000260  00000+0  95194-4 0  9991
2 15483  74.0439 147.2548 0017402  95.5344   9.6747 14.37679230134806
SL-12 R/B(2)            
1 15772U 85042D   25299.98652057  .00000219  00000+0  11997-3 0  9991
2 15772  71.1103  10.1919 0036461 330.4542 202.6569 14.21930249 95389
SL-14 R/B               
1 15945U 85069B   25299.84416116  .00000617  00000+0  67369-4 0  9998
2 15945  82.5261 150.7915 0017355 276.6890  83.2351 14.86245248152955
SL-16 R/B               
1 16182U 85097B   25299.84276207  .00000320  00000+0  18433-3 0  9996
2 16182  71.0032  62.3304 0005304 104.7356  65.3119 14.16573697 68276
SL-14 R/B               
1 16496U 86006B   25299.71886443  .00000828  00000+0  85792-4 0  9996
2 16496  82.5302  25.7843 0076763 357.9526   2.1364 14.86577624129304
